{
  "type": "FeatureCollection",
  "features": [
    {
      "type": "Feature",
      "properties": {
        "norad_id": 57400,
        "name": "TIANMU-1 08",
        "group": "weather",
        "lat": 62.37675090776597,
        "lon": -128.65098405637562,
        "alt_km": 471.324868078319,
        "timestamp": "2025-12-13T13:34:34.721967+00:00",
        "meta_object_name": "TIANMU-1 08",
        "meta_object_id": "2023-101B",
        "meta_epoch": "2025-12-13T00:29:42.437184",
        "meta_mean_motion": 15.28061798,
        "meta_eccentricity": 0.00075113,
        "meta_inclination": 97.287,
        "meta_ra_of_asc_node": 36.6621,
        "meta_arg_of_pericenter": 83.2699,
        "meta_mean_anomaly": 276.9395,
        "meta_ephemeris_type": 0,
        "meta_classification_type": "U",
        "meta_norad_cat_id": 57400,
        "meta_element_set_no": 999,
        "meta_rev_at_epoch": 13319,
        "meta_bstar": 0.00040540872,
        "meta_mean_motion_dot": 0.00011036,
        "meta_mean_motion_ddot": 0,
        "tle_line1": "1 57400U 23101B   25347.02063006  .00011036  00000+0  40541-3 0  9998",
        "tle_line2": "2 57400  97.2870  36.6621 0007511  83.2699 276.9395 15.28061798133191"
      },
      "geometry": {
        "type": "Point",
        "coordinates": [
          -128.65098405637562,
          62.37675090776597
        ]
      }
    },
    {
      "type": "Feature",
      "properties": {
        "norad_id": 57401,
        "name": "TIANMU-1 09",
        "group": "weather",
        "lat": -9.469195017898034,
        "lon": -144.51407043869614,
        "alt_km": 487.17485952127754,
        "timestamp": "2025-12-13T13:34:34.721982+00:00",
        "meta_object_name": "TIANMU-1 09",
        "meta_object_id": "2023-101C",
        "meta_epoch": "2025-12-13T00:10:40.173024",
        "meta_mean_motion": 15.28091504,
        "meta_eccentricity": 0.00067968,
        "meta_inclination": 97.2827,
        "meta_ra_of_asc_node": 36.1625,
        "meta_arg_of_pericenter": 83.3207,
        "meta_mean_anomaly": 276.8806,
        "meta_ephemeris_type": 0,
        "meta_classification_type": "U",
        "meta_norad_cat_id": 57401,
        "meta_element_set_no": 999,
        "meta_rev_at_epoch": 13319,
        "meta_bstar": 0.00040296123,
        "meta_mean_motion_dot": 0.00010977,
        "meta_mean_motion_ddot": 0,
        "tle_line1": "1 57401U 23101C   25347.00740941  .00010977  00000+0  40296-3 0  9997",
        "tle_line2": "2 57401  97.2827  36.1625 0006796  83.3207 276.8806 15.28091504133197"
      },
      "geometry": {
        "type": "Point",
        "coordinates": [
          -144.51407043869614,
          -9.469195017898034
        ]
      }
    },
    {
      "type": "Feature",
      "properties": {
        "norad_id": 57402,
        "name": "TIANMU-1 10",
        "group": "weather",
        "lat": 1.0198822729879546,
        "lon": 37.42816925286586,
        "alt_km": 483.4127808752519,
        "timestamp": "2025-12-13T13:34:34.722001+00:00",
        "meta_object_name": "TIANMU-1 10",
        "meta_object_id": "2023-101D",
        "meta_epoch": "2025-12-13T00:59:56.401728",
        "meta_mean_motion": 15.28082924,
        "meta_eccentricity": 0.00085121,
        "meta_inclination": 97.2907,
        "meta_ra_of_asc_node": 37.046,
        "meta_arg_of_pericenter": 82.5433,
        "meta_mean_anomaly": 277.6774,
        "meta_ephemeris_type": 0,
        "meta_classification_type": "U",
        "meta_norad_cat_id": 57402,
        "meta_element_set_no": 999,
        "meta_rev_at_epoch": 13319,
        "meta_bstar": 0.00040956388,
        "meta_mean_motion_dot": 0.0001116,
        "meta_mean_motion_ddot": 0,
        "tle_line1": "1 57402U 23101D   25347.04162502  .00011160  00000+0  40956-3 0  9991",
        "tle_line2": "2 57402  97.2907  37.0460 0008512  82.5433 277.6774 15.28082924133193"
      },
      "geometry": {
        "type": "Point",
        "coordinates": [
          37.42816925286586,
          1.0198822729879546
        ]
      }
    },
    {
      "type": "Feature",
      "properties": {
        "norad_id": 57490,
        "name": "FENGYUN 3F",
        "group": "weather",
        "lat": -59.148493494059316,
        "lon": 70.71307528695871,
        "alt_km": 833.2659051828623,
        "timestamp": "2025-12-13T13:34:34.722016+00:00",
        "meta_object_name": "FENGYUN 3F",
        "meta_object_id": "2023-111A",
        "meta_epoch": "2025-12-13T00:19:48.180576",
        "meta_mean_motion": 14.19893692,
        "meta_eccentricity": 6.8e-05,
        "meta_inclination": 98.7083,
        "meta_ra_of_asc_node": 55.3027,
        "meta_arg_of_pericenter": 102.5904,
        "meta_mean_anomaly": 257.5349,
        "meta_ephemeris_type": 0,
        "meta_classification_type": "U",
        "meta_norad_cat_id": 57490,
        "meta_element_set_no": 999,
        "meta_rev_at_epoch": 12244,
        "meta_bstar": 8.6320594e-05,
        "meta_mean_motion_dot": 1.4e-06,
        "meta_mean_motion_ddot": 0,
        "tle_line1": "1 57490U 23111A   25347.01375209  .00000140  00000+0  86321-4 0  9999",
        "tle_line2": "2 57490  98.7083  55.3027 0000680 102.5904 257.5349 14.19893692122449"
      },
      "geometry": {
        "type": "Point",
        "coordinates": [
          70.71307528695871,
          -59.148493494059316
        ]
      }
    },
    {
      "type": "Feature",
      "properties": {
        "norad_id": 58584,
        "name": "ARKTIKA-M 2",
        "group": "weather",
        "lat": 63.18566183271828,
        "lon": -92.98748052880308,
        "alt_km": 38274.21351895216,
        "timestamp": "2025-12-13T13:34:34.722033+00:00",
        "meta_object_name": "ARKTIKA-M 2",
        "meta_object_id": "2023-198A",
        "meta_epoch": "2025-12-08T20:10:13.977120",
        "meta_mean_motion": 2.0060476,
        "meta_eccentricity": 0.68646991,
        "meta_inclination": 63.2247,
        "meta_ra_of_asc_node": 175.3152,
        "meta_arg_of_pericenter": 268.1185,
        "meta_mean_anomaly": 18.8267,
        "meta_ephemeris_type": 0,
        "meta_classification_type": "U",
        "meta_norad_cat_id": 58584,
        "meta_element_set_no": 999,
        "meta_rev_at_epoch": 1450,
        "meta_bstar": 0,
        "meta_mean_motion_dot": 1.66e-06,
        "meta_mean_motion_ddot": 0,
        "tle_line1": "1 58584U 23198A   25342.84043955  .00000166  00000+0  00000+0 0  9998",
        "tle_line2": "2 58584  63.2247 175.3152 6864699 268.1185  18.8267  2.00604760 14506"
      },
      "geometry": {
        "type": "Point",
        "coordinates": [
          -92.98748052880308,
          63.18566183271828
        ]
      }
    },
    {
      "type": "Feature",
      "properties": {
        "norad_id": 58645,
        "name": "TIANMU-1 11",
        "group": "weather",
        "lat": 9.81160281893238,
        "lon": -171.54432282225716,
        "alt_km": 497.66561809939503,
        "timestamp": "2025-12-13T13:34:34.722052+00:00",
        "meta_object_name": "TIANMU-1 11",
        "meta_object_id": "2023-205A",
        "meta_epoch": "2025-12-13T00:13:51.683808",
        "meta_mean_motion": 15.24604706,
        "meta_eccentricity": 0.00078983,
        "meta_inclination": 97.3612,
        "meta_ra_of_asc_node": 6.6282,
        "meta_arg_of_pericenter": 309.3594,
        "meta_mean_anomaly": 50.6943,
        "meta_ephemeris_type": 0,
        "meta_classification_type": "U",
        "meta_norad_cat_id": 58645,
        "meta_element_set_no": 999,
        "meta_rev_at_epoch": 10913,
        "meta_bstar": 0.00037780939,
        "meta_mean_motion_dot": 9.257e-05,
        "meta_mean_motion_ddot": 0,
        "tle_line1": "1 58645U 23205A   25347.00962597  .00009257  00000+0  37781-3 0  9990",
        "tle_line2": "2 58645  97.3612   6.6282 0007898 309.3594  50.6943 15.24604706109133"
      },
      "geometry": {
        "type": "Point",
        "coordinates": [
          -171.54432282225716,
          9.81160281893238
        ]
      }
    },
    {
      "type": "Feature",
      "properties": {
        "norad_id": 58646,
        "name": "TIANMU-1 12",
        "group": "weather",
        "lat": 21.68137186684914,
        "lon": 4.034124426653861,
        "alt_km": 492.4466090740534,
        "timestamp": "2025-12-13T13:34:34.722068+00:00",
        "meta_object_name": "TIANMU-1 12",
        "meta_object_id": "2023-205B",
        "meta_epoch": "2025-12-13T00:52:41.664576",
        "meta_mean_motion": 15.24488159,
        "meta_eccentricity": 0.00058658,
        "meta_inclination": 97.36,
        "meta_ra_of_asc_node": 6.4601,
        "meta_arg_of_pericenter": 290.1868,
        "meta_mean_anomaly": 69.8739,
        "meta_ephemeris_type": 0,
        "meta_classification_type": "U",
        "meta_norad_cat_id": 58646,
        "meta_element_set_no": 999,
        "meta_rev_at_epoch": 10912,
        "meta_bstar": 0.00036826882,
        "meta_mean_motion_dot": 8.987e-05,
        "meta_mean_motion_ddot": 0,
        "tle_line1": "1 58646U 23205B   25347.03659334  .00008987  00000+0  36827-3 0  9995",
        "tle_line2": "2 58646  97.3600   6.4601 0005865 290.1868  69.8739 15.24488159109123"
      },
      "geometry": {
        "type": "Point",
        "coordinates": [
          4.034124426653861,
          21.68137186684914
        ]
      }
    }
  ]
}